OBJECT_NAME,OBJECT_ID,EPOCH,MEAN_MOTION,ECCENTRICITY,INCLINATION,RA_OF_ASC_NODE,ARG_OF_PERICENTER,MEAN_ANOMALY,EPHEMERIS_TYPE,CLASSIFICATION_TYPE,NORAD_CAT_ID,ELEMENT_SET_NO,REV_AT_EPOCH,BSTAR,MEAN_MOTION_DOT,MEAN_MOTION_DDOT
STARLINK-37822,2026-126E,2026-06-25T05:05:44.944800,15.75186947,.000172,97.2841,36.6552,74.4566,285.6889,0,U,69424,999,401,.10811E-2,.164245E-2,0
STARLINK-37836,2026-126F,2026-06-23T20:59:55.296384,15.80036073,.00017517,97.2840,35.2601,111.0998,249.0457,0,U,69425,999,380,.15141882E-2,.2893E-2,0
STARLINK-37850,2026-126G,2026-06-25T04:00:00.999072,15.80033664,.0001634,97.2835,36.6256,93.7466,49.4944,0,U,69426,999,406,-.94989E-3,-.172306E-2,0
STARLINK-37823,2026-126H,2026-06-25T04:00:00.999072,15.75204228,.000148,97.2852,36.5916,87.8200,337.6306,0,U,69427,999,401,-.45224E-3,-.67099E-3,0
STARLINK-37834,2026-126J,2026-06-25T03:55:37.556832,15.75186964,.0002913,97.2851,36.5679,57.3080,302.8466,0,U,69428,999,400,.15704E-2,.240824E-2,0
STARLINK-37857,2026-126K,2026-06-25T04:00:00.999072,15.75244602,.0001681,97.2844,36.5992,95.7798,345.6434,0,U,69429,999,401,-.72369E-3,-.10699E-2,0
STARLINK-37866,2026-126L,2026-06-23T22:29:45.348288,15.80840273,.00217581,97.2830,35.3274,200.0438,159.9978,0,U,69430,999,386,.29831675E-2,.622333E-2,0
STARLINK-37555,2026-126M,2026-06-25T03:22:08.260032,15.80823514,.0017403,97.2831,36.5993,194.8600,165.2159,0,U,69431,999,405,-.10401E-1,-.1753661E-1,0
STARLINK-37870,2026-126N,2026-06-25T03:21:55.649952,15.81268558,.0006049,97.2838,36.6006,238.5329,121.5348,0,U,69432,999,400,.33435E-2,.709742E-2,0
STARLINK-37872,2026-126P,2026-06-25T04:00:00.999072,15.80023947,.0001524,97.2833,36.6292,96.4750,53.9468,0,U,69433,999,401,-.89164E-3,-.161866E-2,0
STARLINK-37815,2026-126Q,2026-06-25T04:06:47.479104,15.75249993,.0001296,97.2841,36.5573,86.8327,273.3087,0,U,69434,999,400,.96885E-3,.147279E-2,0
STARLINK-37801,2026-126R,2026-06-25T04:00:00.999072,15.75235590,.0001716,97.2856,36.5883,90.0510,323.3779,0,U,69435,999,406,-.62667E-3,-.92782E-3,0
STARLINK-37800,2026-126S,2026-06-25T03:49:31.556928,15.75176770,.0002706,97.2849,36.5737,50.4133,309.7371,0,U,69436,999,400,.15979E-2,.24505E-2,0
STARLINK-37792,2026-126T,2026-06-25T03:20:54.796704,15.79941772,.0004307,97.2815,36.5996,61.6048,298.5654,0,U,69437,999,405,.16011E-2,.305263E-2,0
STARLINK-37783,2026-126U,2026-06-25T03:20:22.466688,15.79985441,.0001357,97.2843,36.6023,119.0052,241.1352,0,U,69438,999,405,.63774E-3,.11911E-2,0
STARLINK-37771,2026-126V,2026-06-25T04:12:53.468640,15.75249527,.0001664,97.2843,36.5505,96.9299,263.2156,0,U,69439,999,400,.81752E-3,.123913E-2,0
STARLINK-37747,2026-126W,2026-06-24T03:03:29.503584,15.80846306,.00084633,97.2836,35.5288,284.3118,75.7210,0,U,69440,999,384,.32525731E-1,.7643341E-1,0
STARLINK-37629,2026-127A,2026-06-25T04:00:00.999072,15.75258571,.0001232,53.1592,222.7562,86.7232,234.6270,0,U,69443,999,392,-.24001E-3,-.373E-3,0
STARLINK-37509,2026-127B,2026-06-25T04:00:00.999072,15.75266518,.0001109,53.1596,222.7071,104.1584,241.0854,0,U,69444,999,392,-.41456E-3,-.63785E-3,0
STARLINK-37641,2026-127C,2026-06-25T03:43:42.576960,15.75294254,.0001456,53.1588,222.6014,39.2785,320.8341,0,U,69445,999,266,.11035E-2,.172415E-2,0
STARLINK-37522,2026-127D,2026-06-25T04:00:00.999072,15.75271115,.0001082,53.1597,222.7030,94.4491,252.6511,0,U,69446,999,392,-.36694E-3,-.5659E-3,0
STARLINK-37640,2026-127E,2026-06-25T03:31:40.494144,15.80898591,.0001346,53.1577,222.5453,47.0890,313.0246,0,U,69447,999,266,.13063E-2,.265524E-2,0
STARLINK-37572,2026-127F,2026-06-25T04:00:00.999072,15.75268274,.000124,53.1598,222.6004,90.3974,306.3480,0,U,69448,999,392,-.33408E-3,-.51603E-3,0
STARLINK-37643,2026-127G,2026-06-25T04:00:00.999072,15.75270031,.0001174,53.1601,222.6530,97.6225,273.3694,0,U,69449,999,392,-.35791E-3,-.5522E-3,0
STARLINK-37601,2026-127H,2026-06-25T03:56:46.764960,15.75277450,.0001221,53.1598,222.6602,45.8902,314.2219,0,U,69450,999,266,.12657E-2,.198318E-2,0
STARLINK-37578,2026-127J,2026-06-25T04:00:00.999072,15.75271022,.0001181,53.1588,222.4907,99.2926,350.8204,0,U,69451,999,392,-.39982E-3,-.61568E-3,0
STARLINK-37577,2026-127K,2026-06-25T03:20:26.537856,15.80674146,.0003184,53.1577,222.4920,26.3068,333.8116,0,U,69452,999,266,-.66747E-3,-.129357E-2,0
STARLINK-37500,2026-127L,2026-06-25T03:31:06.566592,15.75265793,.0001565,53.1585,222.5417,26.1424,333.9675,0,U,69453,999,266,.14091E-2,.221358E-2,0
STARLINK-37575,2026-127M,2026-06-25T03:15:59.250816,15.80942271,.0001256,53.1582,222.4712,75.5811,284.5351,0,U,69454,999,266,.10182E-2,.205773E-2,0
STARLINK-37642,2026-127N,2026-06-25T04:00:00.999072,15.75272626,.0001103,53.1587,222.4932,91.0180,357.2347,0,U,69455,999,392,-.41835E-3,-.64375E-3,0
