STARLINK-37822          
1 69424U 26126E   26176.21232575  .00164245  00000+0  10811-2 0  9995
2 69424  97.2841  36.6552 0001720  74.4566 285.6889 15.75186947  4011
STARLINK-37836          
1 69425U 26126F   26174.87494556  .00289300  00000+0  15142-2 0  9997
2 69425  97.2840  35.2601 0001751 111.0998 249.0457 15.80036073  3803
STARLINK-37850          
1 69426U 26126G   26176.16667823 -.00172306  00000+0 -94989-3 0  9997
2 69426  97.2835  36.6256 0001634  93.7466  49.4944 15.80033664  4060
STARLINK-37823          
1 69427U 26126H   26176.16667823 -.00067099  00000+0 -45224-3 0  9998
2 69427  97.2852  36.5916 0001480  87.8200 337.6306 15.75204228  4010
STARLINK-37834          
1 69428U 26126J   26176.16362913  .00240824  00000+0  15704-2 0  9997
2 69428  97.2851  36.5679 0002913  57.3080 302.8466 15.75186964  4002
STARLINK-37857          
1 69429U 26126K   26176.16667823 -.00106990  00000+0 -72369-3 0  9994
2 69429  97.2844  36.5992 0001681  95.7798 345.6434 15.75244602  4011
STARLINK-37866          
1 69430U 26126L   26174.93733042  .00622333  00000+0  29832-2 0  9994
2 69430  97.2830  35.3274 0021758 200.0438 159.9978 15.80840273  3860
STARLINK-37555          
1 69431U 26126M   26176.14037338 -.01753661  00000+0 -10401-1 0  9998
2 69431  97.2831  36.5993 0017403 194.8600 165.2159 15.80823514  4058
STARLINK-37870          
1 69432U 26126N   26176.14022743  .00709742  00000+0  33435-2 0  9994
2 69432  97.2838  36.6006 0006049 238.5329 121.5348 15.81268558  4002
STARLINK-37872          
1 69433U 26126P   26176.16667823 -.00161866  00000+0 -89164-3 0  9993
2 69433  97.2833  36.6292 0001524  96.4750  53.9468 15.80023947  4019
STARLINK-37815          
1 69434U 26126Q   26176.17138286  .00147279  00000+0  96885-3 0  9999
2 69434  97.2841  36.5573 0001296  86.8327 273.3087 15.75249993  4008
STARLINK-37801          
1 69435U 26126R   26176.16667823 -.00092782  00000+0 -62667-3 0  9994
2 69435  97.2856  36.5883 0001716  90.0510 323.3779 15.75235590  4065
STARLINK-37800          
1 69436U 26126S   26176.15939302  .00245050  00000+0  15979-2 0  9997
2 69436  97.2849  36.5737 0002706  50.4133 309.7371 15.75176770  4001
STARLINK-37792          
1 69437U 26126T   26176.13952311  .00305263  00000+0  16011-2 0  9992
2 69437  97.2815  36.5996 0004307  61.6048 298.5654 15.79941772  4050
STARLINK-37783          
1 69438U 26126U   26176.13914892  .00119110  00000+0  63774-3 0  9998
2 69438  97.2843  36.6023 0001357 119.0052 241.1352 15.79985441  4059
STARLINK-37771          
1 69439U 26126V   26176.17561885  .00123913  00000+0  81752-3 0  9995
2 69439  97.2843  36.5505 0001664  96.9299 263.2156 15.75249527  4007
STARLINK-37747          
1 69440U 26126W   26175.12742481  .07643341  00000+0  32526-1 0  9996
2 69440  97.2836  35.5288 0008463 284.3118  75.7210 15.80846306  3847
STARLINK-37629          
1 69443U 26127A   26176.16667823 -.00037300  00000+0 -24001-3 0  9999
2 69443  53.1592 222.7562 0001232  86.7232 234.6270 15.75258571  3929
STARLINK-37509          
1 69444U 26127B   26176.16667823 -.00063785  00000+0 -41456-3 0  9999
2 69444  53.1596 222.7071 0001109 104.1584 241.0854 15.75266518  3927
STARLINK-37641          
1 69445U 26127C   26176.15535390  .00172415  00000+0  11035-2 0  9990
2 69445  53.1588 222.6014 0001456  39.2785 320.8341 15.75294254  2666
STARLINK-37522          
1 69446U 26127D   26176.16667823 -.00056590  00000+0 -36694-3 0  9995
2 69446  53.1597 222.7030 0001082  94.4491 252.6511 15.75271115  3920
STARLINK-37640          
1 69447U 26127E   26176.14699646  .00265524  00000+0  13063-2 0  9993
2 69447  53.1577 222.5453 0001346  47.0890 313.0246 15.80898591  2662
STARLINK-37572          
1 69448U 26127F   26176.16667823 -.00051603  00000+0 -33408-3 0  9997
2 69448  53.1598 222.6004 0001240  90.3974 306.3480 15.75268274  3924
STARLINK-37643          
1 69449U 26127G   26176.16667823 -.00055220  00000+0 -35791-3 0  9994
2 69449  53.1601 222.6530 0001174  97.6225 273.3694 15.75270031  3923
STARLINK-37601          
1 69450U 26127H   26176.16443015  .00198318  00000+0  12657-2 0  9990
2 69450  53.1598 222.6602 0001221  45.8902 314.2219 15.75277450  2660
STARLINK-37578          
1 69451U 26127J   26176.16667823 -.00061568  00000+0 -39982-3 0  9995
2 69451  53.1588 222.4907 0001181  99.2926 350.8204 15.75271022  3929
STARLINK-37577          
1 69452U 26127K   26176.13919604 -.00129357  00000+0 -66747-3 0  9990
2 69452  53.1577 222.4920 0003184  26.3068 333.8116 15.80674146  2669
STARLINK-37500          
1 69453U 26127L   26176.14660378  .00221358  00000+0  14091-2 0  9999
2 69453  53.1585 222.5417 0001565  26.1424 333.9675 15.75265793  2665
STARLINK-37575          
1 69454U 26127M   26176.13610244  .00205773  00000+0  10182-2 0  9996
2 69454  53.1582 222.4712 0001256  75.5811 284.5351 15.80942271  2666
STARLINK-37642          
1 69455U 26127N   26176.16667823 -.00064375  00000+0 -41835-3 0  9998
2 69455  53.1587 222.4932 0001103  91.0180 357.2347 15.75272626  3926
